{"type": "FeatureCollection", "features": [ {"type": "Feature", "properties": {"norad_id": 66052, "name": "HRC MONOBLOCK CAMERA", "group": "stations", "lat": 27.484202729309484, "lon": 122.64257580669285, "alt_km": 401.23205503845384, "timestamp": "2025-12-21T09:37:21.406208+00:00", "meta": {"OBJECT_NAME": "HRC MONOBLOCK CAMERA", "OBJECT_ID": "1998-067XR", "EPOCH": "2025-12-21T00:12:43.040736", "MEAN_MOTION": 15.54684783, "ECCENTRICITY": 0.0002424, "INCLINATION": 51.6308, "RA_OF_ASC_NODE": 100.2596, "ARG_OF_PERICENTER": 223.3517, "MEAN_ANOMALY": 136.7283, "EPHEMERIS_TYPE": 0, "CLASSIFICATION_TYPE": "U", "NORAD_CAT_ID": 66052, "ELEMENT_SET_NO": 999, "REV_AT_EPOCH": 1012, "BSTAR": 0.00039907, "MEAN_MOTION_DOT": 0.00026569, "MEAN_MOTION_DDOT": 0}, "tle": {"line1": "1 66052U 98067XR  25355.00883149  .00026569  00000+0  39907-3 0  9990", "line2": "2 66052  51.6308 100.2596 0002424 223.3517 136.7283 15.54684783 10127"}}, "geometry": {"type": "Point", "coordinates": [122.64257580669285, 27.484202729309484]}}, {"type": "Feature", "properties": {"norad_id": 66174, "name": "HTV-X1", "group": "stations", "lat": 31.03779381022031, "lon": -108.88720370685567, "alt_km": 415.31197983310085, "timestamp": "2025-12-21T09:37:21.406219+00:00", "meta": {"OBJECT_NAME": "HTV-X1", "OBJECT_ID": "2025-241A", "EPOCH": "2025-12-20T16:00:06.135552", "MEAN_MOTION": 15.49686708, "ECCENTRICITY": 0.00031636, "INCLINATION": 51.6321, "RA_OF_ASC_NODE": 103.2234, "ARG_OF_PERICENTER": 277.4707, "MEAN_ANOMALY": 82.5922, "EPHEMERIS_TYPE": 0, "CLASSIFICATION_TYPE": "U", "NORAD_CAT_ID": 66174, "ELEMENT_SET_NO": 999, "REV_AT_EPOCH": 51, "BSTAR": 0.00013711052, "MEAN_MOTION_DOT": 7.293e-05, "MEAN_MOTION_DDOT": 0}, "tle": {"line1": "1 66174U 25241A   25354.66673768  .00007293  00000+0  13711-3 0  9992", "line2": "2 66174  51.6321 103.2234 0003163 277.4707  82.5922 15.49686708   514"}}, "geometry": {"type": "Point", "coordinates": [-108.88720370685567, 31.03779381022031]}}, {"type": "Feature", "properties": {"norad_id": 66515, "name": "SZ-21 MODULE", "group": "stations", "lat": -34.459708703576645, "lon": -165.83377669481766, "alt_km": 380.6994438592128, "timestamp": "2025-12-21T09:37:21.406230+00:00", "meta": {"OBJECT_NAME": "SZ-21 MODULE", "OBJECT_ID": "2025-246C", "EPOCH": "2025-12-21T02:28:16.864608", "MEAN_MOTION": 15.62895195, "ECCENTRICITY": 0.0005393, "INCLINATION": 41.4772, "RA_OF_ASC_NODE": 325.0132, "ARG_OF_PERICENTER": 304.7401, "MEAN_ANOMALY": 55.2931, "EPHEMERIS_TYPE": 0, "CLASSIFICATION_TYPE": "U", "NORAD_CAT_ID": 66515, "ELEMENT_SET_NO": 999, "REV_AT_EPOCH": 575, "BSTAR": 0.00023274, "MEAN_MOTION_DOT": 0.00021377, "MEAN_MOTION_DDOT": 0}, "tle": {"line1": "1 66515U 25246C   25355.10297297  .00021377  00000+0  23274-3 0  9999", "line2": "2 66515  41.4772 325.0132 0005393 304.7401  55.2931 15.62895195  5758"}}, "geometry": {"type": "Point", "coordinates": [-165.83377669481766, -34.459708703576645]}}, {"type": "Feature", "properties": {"norad_id": 66645, "name": "SHENZHOU-22", "group": "stations", "lat": -28.438662432245806, "lon": -178.0646535401336, "alt_km": 394.0358484090657, "timestamp": "2025-12-21T09:37:21.406240+00:00", "meta": {"OBJECT_NAME": "SHENZHOU-22", "OBJECT_ID": "2025-272A", "EPOCH": "2025-12-20T23:26:14.890272", "MEAN_MOTION": 15.59514827, "ECCENTRICITY": 0.00077445, "INCLINATION": 41.4685, "RA_OF_ASC_NODE": 326.6888, "ARG_OF_PERICENTER": 103.1948, "MEAN_ANOMALY": 256.9755, "EPHEMERIS_TYPE": 0, "CLASSIFICATION_TYPE": "U", "NORAD_CAT_ID": 66645, "ELEMENT_SET_NO": 999, "REV_AT_EPOCH": 26519, "BSTAR": 0.00017446348, "MEAN_MOTION_DOT": 0.00013949, "MEAN_MOTION_DDOT": 0}, "tle": {"line1": "1 66645U 25272A   25354.97656123  .00013949  00000+0  17446-3 0  9993", "line2": "2 66645  41.4685 326.6888 0007744 103.1948 256.9755 15.59514827265195"}}, "geometry": {"type": "Point", "coordinates": [-178.0646535401336, -28.438662432245806]}}, {"type": "Feature", "properties": {"norad_id": 66664, "name": "SOYUZ-MS 28", "group": "stations", "lat": 31.037758870761408, "lon": -108.88716086649124, "alt_km": 415.3125149681937, "timestamp": "2025-12-21T09:37:21.406250+00:00", "meta": {"OBJECT_NAME": "SOYUZ-MS 28", "OBJECT_ID": "2025-275A", "EPOCH": "2025-12-20T16:00:06.134688", "MEAN_MOTION": 15.49686708, "ECCENTRICITY": 0.0003164, "INCLINATION": 51.6321, "RA_OF_ASC_NODE": 103.2234, "ARG_OF_PERICENTER": 277.4707, "MEAN_ANOMALY": 82.5922, "EPHEMERIS_TYPE": 0, "CLASSIFICATION_TYPE": "U", "NORAD_CAT_ID": 66664, "ELEMENT_SET_NO": 999, "REV_AT_EPOCH": 367, "BSTAR": 0.00013711, "MEAN_MOTION_DOT": 7.293e-05, "MEAN_MOTION_DDOT": 0}, "tle": {"line1": "1 66664U 25275A   25354.66673767  .00007293  00000+0  13711-3 0  9992", "line2": "2 66664  51.6321 103.2234 0003164 277.4707  82.5922 15.49686708  3679"}}, "geometry": {"type": "Point", "coordinates": [-108.88716086649124, 31.037758870761408]}}, {"type": "Feature", "properties": {"norad_id": 66906, "name": "1998-067XS", "group": "stations", "lat": -19.33926011734742, "lon": -64.40773203367598, "alt_km": 415.0116716545226, "timestamp": "2025-12-21T09:37:21.406261+00:00", "meta": {"OBJECT_NAME": "1998-067XS", "OBJECT_ID": "1998-067XS", "EPOCH": "2025-12-20T11:05:35.991168", "MEAN_MOTION": 15.50962254, "ECCENTRICITY": 0.00030029, "INCLINATION": 51.6311, "RA_OF_ASC_NODE": 104.1082, "ARG_OF_PERICENTER": 237.5, "MEAN_ANOMALY": 122.5699, "EPHEMERIS_TYPE": 0, "CLASSIFICATION_TYPE": "U", "NORAD_CAT_ID": 66906, "ELEMENT_SET_NO": 999, "REV_AT_EPOCH": 281, "BSTAR": 0.00037246497, "MEAN_MOTION_DOT": 0.00021596, "MEAN_MOTION_DDOT": 0}, "tle": {"line1": "1 66906U 98067XS  25354.46222212  .00021596  00000+0  37246-3 0  9994", "line2": "2 66906  51.6311 104.1082 0003002 237.5000 122.5699 15.50962254  2818"}}, "geometry": {"type": "Point", "coordinates": [-64.40773203367598, -19.33926011734742]}}, {"type": "Feature", "properties": {"norad_id": 66907, "name": "1998-067XT", "group": "stations", "lat": -49.804672863301874, "lon": -10.994214777922599, "alt_km": 411.57135660845415, "timestamp": "2025-12-21T09:37:21.406272+00:00", "meta": {"OBJECT_NAME": "1998-067XT", "OBJECT_ID": "1998-067XT", "EPOCH": "2025-12-19T11:42:50.767776", "MEAN_MOTION": 15.52255247, "ECCENTRICITY": 0.0003998, "INCLINATION": 51.6306, "RA_OF_ASC_NODE": 108.8528, "ARG_OF_PERICENTER": 265.7173, "MEAN_ANOMALY": 94.336, "EPHEMERIS_TYPE": 0, "CLASSIFICATION_TYPE": "U", "NORAD_CAT_ID": 66907, "ELEMENT_SET_NO": 999, "REV_AT_EPOCH": 266, "BSTAR": 0.00077339, "MEAN_MOTION_DOT": 0.00047666, "MEAN_MOTION_DDOT": 0}, "tle": {"line1": "1 66907U 98067XT  25353.48808759  .00047666  00000+0  77339-3 0  9995", "line2": "2 66907  51.6306 108.8528 0003998 265.7173  94.3360 15.52255247  2660"}}, "geometry": {"type": "Point", "coordinates": [-10.994214777922599, -49.804672863301874]}}, {"type": "Feature", "properties": {"norad_id": 66908, "name": "1998-067XU", "group": "stations", "lat": -50.88699031888867, "lon": -3.6509759497454635, "alt_km": 411.3347989887907, "timestamp": "2025-12-21T09:37:21.406283+00:00", "meta": {"OBJECT_NAME": "1998-067XU", "OBJECT_ID": "1998-067XU", "EPOCH": "2025-12-21T00:46:29.963136", "MEAN_MOTION": 15.52510982, "ECCENTRICITY": 0.0003904, "INCLINATION": 51.6311, "RA_OF_ASC_NODE": 101.1653, "ARG_OF_PERICENTER": 276.2494, "MEAN_ANOMALY": 83.8051, "EPHEMERIS_TYPE": 0, "CLASSIFICATION_TYPE": "U", "NORAD_CAT_ID": 66908, "ELEMENT_SET_NO": 999, "REV_AT_EPOCH": 290, "BSTAR": 0.00080289, "MEAN_MOTION_DOT": 0.00049977, "MEAN_MOTION_DDOT": 0}, "tle": {"line1": "1 66908U 98067XU  25355.03229124  .00049977  00000+0  80289-3 0  9997", "line2": "2 66908  51.6311 101.1653 0003904 276.2494  83.8051 15.52510982  2909"}}, "geometry": {"type": "Point", "coordinates": [-3.6509759497454635, -50.88699031888867]}}, {"type": "Feature", "properties": {"norad_id": 66909, "name": "SILVERSAT", "group": "stations", "lat": -51.57235024007694, "lon": 6.294361742868522, "alt_km": 410.8814147183366, "timestamp": "2025-12-21T09:37:21.406303+00:00", "meta": {"OBJECT_NAME": "SILVERSAT", "OBJECT_ID": "1998-067XV", "EPOCH": "2025-12-21T00:44:56.474880", "MEAN_MOTION": 15.52677939, "ECCENTRICITY": 0.0003815, "INCLINATION": 51.6312, "RA_OF_ASC_NODE": 101.1583, "ARG_OF_PERICENTER": 279.3746, "MEAN_ANOMALY": 80.6813, "EPHEMERIS_TYPE": 0, "CLASSIFICATION_TYPE": "U", "NORAD_CAT_ID": 66909, "ELEMENT_SET_NO": 999, "REV_AT_EPOCH": 290, "BSTAR": 0.00085685, "MEAN_MOTION_DOT": 0.00053716, "MEAN_MOTION_DDOT": 0}, "tle": {"line1": "1 66909U 98067XV  25355.03120920  .00053716  00000+0  85685-3 0  9993", "line2": "2 66909  51.6312 101.1583 0003815 279.3746  80.6813 15.52677939  2905"}}, "geometry": {"type": "Point", "coordinates": [6.294361742868522, -51.57235024007694]}}, {"type": "Feature", "properties": {"norad_id": 66910, "name": "1998-067XW", "group": "stations", "lat": -50.89685544864924, "lon": 22.18897511456877, "alt_km": 410.84183813881555, "timestamp": "2025-12-21T09:37:21.406323+00:00", "meta": {"OBJECT_NAME": "1998-067XW", "OBJECT_ID": "1998-067XW", "EPOCH": "2025-12-21T00:42:22.362336", "MEAN_MOTION": 15.52668327, "ECCENTRICITY": 0.0004176, "INCLINATION": 51.6309, "RA_OF_ASC_NODE": 101.1459, "ARG_OF_PERICENTER": 252.7985, "MEAN_ANOMALY": 107.2548, "EPHEMERIS_TYPE": 0, "CLASSIFICATION_TYPE": "U", "NORAD_CAT_ID": 66910, "ELEMENT_SET_NO": 999, "REV_AT_EPOCH": 290, "BSTAR": 0.00074556, "MEAN_MOTION_DOT": 0.00046622, "MEAN_MOTION_DDOT": 0}, "tle": {"line1": "1 66910U 98067XW  25355.02942549  .00046622  00000+0  74556-3 0  9996", "line2": "2 66910  51.6309 101.1459 0004176 252.7985 107.2548 15.52668327  2908"}}, "geometry": {"type": "Point", "coordinates": [22.18897511456877, -50.89685544864924]}}]}